OBJECT_NAME,OBJECT_ID,EPOCH,MEAN_MOTION,ECCENTRICITY,INCLINATION,RA_OF_ASC_NODE,ARG_OF_PERICENTER,MEAN_ANOMALY,EPHEMERIS_TYPE,CLASSIFICATION_TYPE,NORAD_CAT_ID,ELEMENT_SET_NO,REV_AT_EPOCH,BSTAR,MEAN_MOTION_DOT,MEAN_MOTION_DDOT
LEMUR-2-STARLIGHT,2025-276DY,2026-07-12T15:59:40.842816,14.99335039,.0014811,97.5235,263.4338,54.7591,305.5016,0,U,66783,999,3401,.30466E-3,.3675E-4,0
LEMUR-2-TARTIFLETTE,2025-276DZ,2026-07-12T17:33:26.701056,14.99322354,.0013873,97.5235,263.5049,62.7426,297.5209,0,U,66784,999,3402,.29192E-3,.3516E-4,0
LEMUR-2-VUKASIN,2025-276EA,2026-07-13T04:05:47.766336,15.00535741,.0003404,97.5238,264.2842,60.3374,299.8188,0,U,66785,999,3404,.22476E-3,.2777E-4,0
LEMUR-2-HOTSPUR-TOM,2025-276EB,2026-07-12T19:01:15.762720,14.99227481,.0013783,97.5223,263.5388,53.6491,306.6002,0,U,66786,999,3396,.28941E-3,.3477E-4,0
LEMUR-2-MYRA,2025-276EC,2026-07-12T17:39:39.104064,15.00572080,.0018605,97.5226,263.7829,61.6382,298.6715,0,U,66787,999,3404,.29064E-3,.3624E-4,0
LEMUR-2 FIKRETDENGIZ,2026-004A,2026-07-12T22:47:09.379104,14.88507915,.0010307,97.8023,192.1152,62.1023,298.1237,0,U,67363,999,2711,.27684E-3,.252E-4,0
TWILIGHT-1 OBJECT B,2026-004B,2026-07-12T12:21:08.778816,14.87787971,.00099096,97.8073,191.6894,53.6882,306.5248,0,U,67364,999,2705,.11075664E-3,.957E-5,0
LEMUR-2-MARIO-SOUSA,2026-004C,2026-07-12T23:55:23.935584,14.88716641,.000994,97.7995,192.1569,63.2656,296.9577,0,U,67365,999,2713,.29239E-3,.2679E-4,0
LEMUR-2-SONNENBLUME,2026-004E,2026-07-12T22:22:07.454208,14.88446772,.0009512,97.7999,192.0669,64.4716,295.7483,0,U,67367,999,2712,.1722E-3,.1544E-4,0
LEMUR-2-WOBLER,2026-004F,2026-07-12T22:07:13.871712,14.88688331,.0009615,97.8046,192.2054,56.3610,303.8523,0,U,67368,999,2712,.22349E-3,.2033E-4,0
LEMUR-2-GRAM-E-SUE,2026-004H,2026-07-12T21:55:39.961344,14.88583379,.0008703,97.7985,192.0653,67.1556,293.0579,0,U,67370,999,2712,.14771E-3,.1321E-4,0
LEMUR-2-KATIE,2026-004AA,2026-07-12T22:34:02.205984,14.90239334,.0003671,97.8041,192.6354,39.3280,320.8204,0,U,67387,999,2714,.33168E-3,.3162E-4,0
LEMUR-2-HCS-BAZUS,2026-004AB,2026-07-12T22:31:41.858688,14.90254794,.0003171,97.8031,192.6124,39.3206,320.8242,0,U,67388,999,2714,.2103E-3,.1985E-4,0
